[
    {
        "Altitude(m)": 605459.0099968407,
        "Argument of Periapsis(deg)": 0.0,
        "Eccentricity": 0.0,
        "Inclination(deg)": 60.0,
        "Latitude(deg)": 27.98815295611819,
        "Longitude(deg)": -42.201454447646306,
        "Mean Anomaly(deg)": 32.72729999999999,
        "RAAN(deg)": 40.0,
        "Satellite Name": "Test1 178",
        "Satellite Number": 178,
        "Semi-Major Axis(m)": 6980739.136638005,
        "Time(s)": 0
    },
    {
        "Altitude(m)": 605535.8009362776,
        "Argument of Periapsis(deg)": 0.00010418945913296404,
        "Eccentricity": 0.0,
        "Inclination(deg)": 60.0,
        "Latitude(deg)": 28.501282936097642,
        "Longitude(deg)": -41.844510425610885,
        "Mean Anomaly(deg)": 33.34740614546183,
        "RAAN(deg)": 39.99957995086026,
        "Satellite Name": "Test1 178",
        "Satellite Number": 178,
        "Semi-Major Axis(m)": 6980739.136638005,
        "Time(s)": 10
    }
]